NAVSTAR 77 (USA 289)    
1 43873U 18109A   23285.72664619  .00000075  00000+0  00000+0 0  9995
2 43873  55.2056 130.8478 0026402 189.7946 117.0788  2.00570396 35449
